OBJECT_NAME,OBJECT_ID,EPOCH,MEAN_MOTION,ECCENTRICITY,INCLINATION,RA_OF_ASC_NODE,ARG_OF_PERICENTER,MEAN_ANOMALY,EPHEMERIS_TYPE,CLASSIFICATION_TYPE,NORAD_CAT_ID,ELEMENT_SET_NO,REV_AT_EPOCH,BSTAR,MEAN_MOTION_DOT,MEAN_MOTION_DDOT
ONEWEB-0633,2023-043AE,2026-07-02T14:28:01.959744,13.15547957,.0002181,87.9005,256.1189,110.4052,249.7312,0,U,56074,999,15843,-.15024E-3,-.44E-6,0
ONEWEB-0634,2023-043AF,2026-07-02T15:57:01.043424,13.15547732,.0002337,87.8998,256.1460,96.5233,263.6164,0,U,56075,999,15843,.13802E-3,.65E-6,0
ONEWEB-0635,2023-043AG,2026-07-02T04:53:01.925664,13.15548151,.00018447,87.9007,256.2015,94.3224,265.8117,0,U,56076,999,15840,.32890175E-3,.137E-5,0
ONEWEB-0636,2023-043AH,2026-07-02T15:38:44.819232,13.15547351,.0001879,87.9005,256.1182,95.1091,265.0254,0,U,56077,999,15844,.44101E-3,.179E-5,0
ONEWEB-0637,2023-043AJ,2026-07-02T15:29:37.978944,13.15547905,.0002087,87.8988,256.1351,91.9108,268.2261,0,U,56078,999,15846,.12732E-3,.61E-6,0
ONEWEB-0647,2023-043AK,2026-07-02T11:43:45.053760,13.15547908,.0001925,87.8996,256.1788,100.8910,259.2437,0,U,56079,999,15843,.21767E-3,.95E-6,0
ONEWEB-0651,2023-043AL,2026-07-02T18:54:59.372352,13.15547659,.0001948,87.8993,256.1124,92.6736,267.4617,0,U,56080,999,15967,.31814E-3,.133E-5,0
ONEWEB-0718,2023-043AM,2026-07-02T11:30:03.698208,13.15548432,.0002541,87.8994,256.1547,100.3991,259.7426,0,U,56081,999,15844,.31713E-3,.132E-5,0
ONEWEB-0561,2023-068A,2026-07-02T12:00:45.696096,13.20773907,.0001657,87.9197,271.3921,98.8763,261.2558,0,U,56710,999,15152,.18857E-3,.9E-6,0
ONEWEB-0668,2023-068B,2026-07-02T13:15:20.148192,13.16594281,.0002498,87.9085,225.7210,88.3509,271.7908,0,U,56711,999,15380,.23611E-3,.103E-5,0
ONEWEB-0676,2023-068C,2026-07-02T13:26:44.296224,13.16594143,.000182,87.9087,225.7256,88.9903,271.1437,0,U,56712,999,15372,.26212E-3,.113E-5,0
ONEWEB-0677,2023-068D,2026-07-02T17:11:05.646048,13.20771366,.0002062,87.9193,271.3404,88.6400,271.4969,0,U,56713,999,15185,.50127E-4,.33E-6,0
ONEWEB-0678,2023-068E,2026-07-02T14:23:27.738240,13.15547803,.0001871,87.9005,256.1241,106.0244,254.1093,0,U,56714,999,15131,-.16608E-3,-.5E-6,0
ONEWEB-0679,2023-068F,2026-07-02T19:45:11.636640,13.16593613,.0002269,87.9085,225.6645,80.8264,279.3124,0,U,56715,999,15378,-.92023E-4,-.22E-6,0
ONEWEB-0680,2023-068G,2026-07-02T14:43:39.270144,13.21825327,.0002452,87.9248,240.9025,87.0767,273.0647,0,U,56716,999,15313,-.12359E-3,-.38E-6,0
ONEWEB-0681,2023-068H,2026-07-02T14:15:47.316096,13.21824160,.0001334,87.9246,240.9072,74.5302,285.5979,0,U,56717,999,15312,.70957E-4,.42E-6,0
ONEWEB-0682,2023-068J,2026-07-02T14:57:41.675328,13.15547920,.0002419,87.9003,256.1199,89.7887,270.3521,0,U,56718,999,15148,-.40982E-3,-.141E-5,0
ONEWEB-0683,2023-068K,2026-07-02T15:31:55.034400,13.15547685,.0002257,87.9001,256.1153,96.9561,263.1826,0,U,56719,999,15145,.48822E-3,.197E-5,0
ONEWEB-0684,2023-068L,2026-07-02T15:43:20.038656,13.15549054,.0002441,87.9003,256.1032,132.6045,227.5291,0,U,56720,999,15128,.37341E-3,.153E-5,0
ONEWEB-0686,2023-068M,2026-07-02T13:19:53.508288,13.16593428,.0002372,87.9076,225.7399,98.7617,261.3782,0,U,56721,999,15373,.16791E-3,.77E-6,0
ONEWEB-0694,2023-068N,2026-07-02T13:29:00.455712,13.16593856,.0002482,87.9097,225.7061,89.7733,270.3682,0,U,56722,999,15379,.20119E-3,.9E-6,0
ONEWEB-0696,2023-068P,2026-07-02T11:02:40.699392,13.15549366,.000176,87.8995,256.1792,110.9544,249.1774,0,U,56723,999,15137,-.42857E-4,-.3E-7,0
ONEWEB-0703,2023-068Q,2026-07-02T14:55:23.692800,13.15547174,.0001302,87.8996,256.1283,116.5802,243.5462,0,U,56724,999,15128,-.23712E-3,-.76E-6,0
ONEWEB-0721,2023-068R,2026-07-02T17:24:58.288032,13.22470207,.0001826,86.6758,80.5567,78.0078,282.1260,0,U,56725,999,15999,.68359E-4,.43E-6,0
ONEWEB-0015,2024-188A,2026-07-02T19:08:41.254944,13.11415827,.000183,87.8874,17.9845,71.0838,289.0488,0,U,61594,999,8650,-.14619E-2,-.505E-5,0
ONEWEB-0687,2024-188B,2026-07-02T19:08:41.299008,13.17649048,.0002214,87.9130,2.7698,80.6448,279.4933,0,U,61595,999,8795,-.15354E-3,-.47E-6,0
ONEWEB-0688,2024-188C,2026-07-02T18:00:38.295072,13.17650484,.0001951,87.9130,2.7791,53.1873,306.9437,0,U,61596,999,8794,.136E-3,.66E-6,0
ONEWEB-0689,2024-188D,2026-07-02T19:57:32.046624,13.11416685,.0002153,87.8893,17.9380,88.2357,271.9018,0,U,61597,999,8650,.14137E-2,.514E-5,0
ONEWEB-0690,2024-188E,2026-07-02T20:12:11.367072,13.11415545,.0001299,87.8883,17.9467,99.2433,260.8842,0,U,61598,999,8668,.15918E-2,.577E-5,0
ONEWEB-0691,2024-188F,2026-07-02T12:45:23.494752,13.11414981,.0001923,87.8897,17.9187,75.8833,284.2508,0,U,61599,999,8649,.13283E-2,.483E-5,0
ONEWEB-0692,2024-188G,2026-07-02T18:44:17.271744,13.11415327,.000243,87.8874,17.9795,103.7549,256.3850,0,U,61600,999,8651,-.90416E-4,-.19E-6,0
