ONEWEB-0633             
1 56074U 23043AE  26183.60280046 -.00000044  00000+0 -15024-3 0  9994
2 56074  87.9005 256.1189 0002181 110.4052 249.7312 13.15547957158436
ONEWEB-0634             
1 56075U 23043AF  26183.66459541  .00000065  00000+0  13802-3 0  9992
2 56075  87.8998 256.1460 0002337  96.5233 263.6164 13.15547732158438
ONEWEB-0635             
1 56076U 23043AG  26183.20349451  .00000137  00000+0  32890-3 0  9999
2 56076  87.9007 256.2015 0001844  94.3224 265.8117 13.15548151158401
ONEWEB-0636             
1 56077U 23043AH  26183.65190763  .00000179  00000+0  44101-3 0  9993
2 56077  87.9005 256.1182 0001879  95.1091 265.0254 13.15547351158442
ONEWEB-0637             
1 56078U 23043AJ  26183.64557846  .00000061  00000+0  12732-3 0  9997
2 56078  87.8988 256.1351 0002087  91.9108 268.2261 13.15547905158465
ONEWEB-0647             
1 56079U 23043AK  26183.48871590  .00000095  00000+0  21767-3 0  9990
2 56079  87.8996 256.1788 0001925 100.8910 259.2437 13.15547908158435
ONEWEB-0651             
1 56080U 23043AL  26183.78818718  .00000133  00000+0  31814-3 0  9995
2 56080  87.8993 256.1124 0001948  92.6736 267.4617 13.15547659159678
ONEWEB-0718             
1 56081U 23043AM  26183.47920947  .00000132  00000+0  31713-3 0  9997
2 56081  87.8994 256.1547 0002541 100.3991 259.7426 13.15548432158445
ONEWEB-0561             
1 56710U 23068A   26183.50052889  .00000090  00000+0  18857-3 0  9995
2 56710  87.9197 271.3921 0001657  98.8763 261.2558 13.20773907151529
ONEWEB-0668             
1 56711U 23068B   26183.55231653  .00000103  00000+0  23611-3 0  9998
2 56711  87.9085 225.7210 0002498  88.3509 271.7908 13.16594281153805
ONEWEB-0676             
1 56712U 23068C   26183.56023491  .00000113  00000+0  26212-3 0  9990
2 56712  87.9087 225.7256 0001820  88.9903 271.1437 13.16594143153729
ONEWEB-0677             
1 56713U 23068D   26183.71603757  .00000033  00000+0  50127-4 0  9991
2 56713  87.9193 271.3404 0002062  88.6400 271.4969 13.20771366151852
ONEWEB-0678             
1 56714U 23068E   26183.59962660 -.00000050  00000+0 -16608-3 0  9995
2 56714  87.9005 256.1241 0001871 106.0244 254.1093 13.15547803151311
ONEWEB-0679             
1 56715U 23068F   26183.82305135 -.00000022  00000+0 -92023-4 0  9995
2 56715  87.9085 225.6645 0002269  80.8264 279.3124 13.16593613153780
ONEWEB-0680             
1 56716U 23068G   26183.61364896 -.00000038  00000+0 -12359-3 0  9992
2 56716  87.9248 240.9025 0002452  87.0767 273.0647 13.21825327153131
ONEWEB-0681             
1 56717U 23068H   26183.59429764  .00000042  00000+0  70957-4 0  9998
2 56717  87.9246 240.9072 0001334  74.5302 285.5979 13.21824160153125
ONEWEB-0682             
1 56718U 23068J   26183.62339902 -.00000141  00000+0 -40982-3 0  9993
2 56718  87.9003 256.1199 0002419  89.7887 270.3521 13.15547920151488
ONEWEB-0683             
1 56719U 23068K   26183.64716475  .00000197  00000+0  48822-3 0  9990
2 56719  87.9001 256.1153 0002257  96.9561 263.1826 13.15547685151459
ONEWEB-0684             
1 56720U 23068L   26183.65509304  .00000153  00000+0  37341-3 0  9990
2 56720  87.9003 256.1032 0002441 132.6045 227.5291 13.15549054151282
ONEWEB-0686             
1 56721U 23068M   26183.55548042  .00000077  00000+0  16791-3 0  9993
2 56721  87.9076 225.7399 0002372  98.7617 261.3782 13.16593428153739
ONEWEB-0694             
1 56722U 23068N   26183.56181083  .00000090  00000+0  20119-3 0  9997
2 56722  87.9097 225.7061 0002482  89.7733 270.3682 13.16593856153790
ONEWEB-0696             
1 56723U 23068P   26183.46019328 -.00000003  00000+0 -42857-4 0  9999
2 56723  87.8995 256.1792 0001760 110.9544 249.1774 13.15549366151375
ONEWEB-0703             
1 56724U 23068Q   26183.62180200 -.00000076  00000+0 -23712-3 0  9994
2 56724  87.8996 256.1283 0001302 116.5802 243.5462 13.15547174151280
ONEWEB-0721             
1 56725U 23068R   26183.72567463  .00000043  00000+0  68359-4 0  9995
2 56725  86.6758  80.5567 0001826  78.0078 282.1260 13.22470207159997
ONEWEB-0015             
1 61594U 24188A   26183.79769971 -.00000505  00000+0 -14619-2 0  9997
2 61594  87.8874  17.9845 0001830  71.0838 289.0488 13.11415827 86503
ONEWEB-0687             
1 61595U 24188B   26183.79770022 -.00000047  00000+0 -15354-3 0  9996
2 61595  87.9130   2.7698 0002214  80.6448 279.4933 13.17649048 87956
ONEWEB-0688             
1 61596U 24188C   26183.75044323  .00000066  00000+0  13600-3 0  9992
2 61596  87.9130   2.7791 0001951  53.1873 306.9437 13.17650484 87945
ONEWEB-0689             
1 61597U 24188D   26183.83162091  .00000514  00000+0  14137-2 0  9998
2 61597  87.8893  17.9380 0002153  88.2357 271.9018 13.11416685 86508
ONEWEB-0690             
1 61598U 24188E   26183.84179823  .00000577  00000+0  15918-2 0  9998
2 61598  87.8883  17.9467 0001299  99.2433 260.8842 13.11415545 86686
ONEWEB-0691             
1 61599U 24188F   26183.53152193  .00000483  00000+0  13283-2 0  9995
2 61599  87.8897  17.9187 0001923  75.8833 284.2508 13.11414981 86490
ONEWEB-0692             
1 61600U 24188G   26183.78075546 -.00000019  00000+0 -90416-4 0  9993
2 61600  87.8874  17.9795 0002430 103.7549 256.3850 13.11415327 86510
